STARLINK-31308          
1 59153U 24044B   26068.01372359  .00000726  00000+0  35921-4 0  9997
2 59153  43.0032  64.0106 0001482 280.6696  79.3989 15.27567770114048
TRANSPORTER-13 OBJECT AH
1 63241U 25052AH  26068.64880921  .00014108  00000+0  55931-3 0  9999
2 63241  97.3962 323.1443 0008070 138.7508 221.4341 15.25468797 54753
